[{"OBJECT_NAME":"JILIN-1 07","OBJECT_ID":"2018-008E","EPOCH":"2026-03-09T22:24:26.445888","MEAN_MOTION":15.32987507,"ECCENTRICITY":0.00101791,"INCLINATION":97.1876,"RA_OF_ASC_NODE":91.5817,"ARG_OF_PERICENTER":62.7832,"MEAN_ANOMALY":297.4447,"EPHEMERIS_TYPE":0,"CLASSIFICATION_TYPE":"U","NORAD_CAT_ID":43159,"ELEMENT_SET_NO":999,"REV_AT_EPOCH":44978,"BSTAR":0.00036439521,"MEAN_MOTION_DOT":0.00011559,"MEAN_MOTION_DDOT":0},{"OBJECT_NAME":"STARLINK-34319","OBJECT_ID":"2025-120N","EPOCH":"2026-03-09T12:56:25.486368","MEAN_MOTION":15.30195371,"ECCENTRICITY":0.00012699,"INCLINATION":53.1585,"RA_OF_ASC_NODE":117.3485,"ARG_OF_PERICENTER":80.5476,"MEAN_ANOMALY":279.5668,"EPHEMERIS_TYPE":0,"CLASSIFICATION_TYPE":"U","NORAD_CAT_ID":64268,"ELEMENT_SET_NO":999,"REV_AT_EPOCH":4389,"BSTAR":0.0010320328,"MEAN_MOTION_DOT":0.00030327,"MEAN_MOTION_DDOT":0}]
